{"type": "FeatureCollection", "features": [ {"type": "Feature", "properties": {"norad_id": 66980, "name": "STARLINK-36086", "group": "last-30-days", "lat": 14.479146635177985, "lon": -86.70797906718114, "alt_km": 342.6136285999346, "timestamp": "2025-12-22T04:03:37.889700+00:00", "meta": {"OBJECT_NAME": "STARLINK-36086", "OBJECT_ID": "2025-288X", "EPOCH": "2025-12-21T20:00:01.999008", "MEAN_MOTION": 15.75165806, "ECCENTRICITY": 0.0001693, "INCLINATION": 43.0008, "RA_OF_ASC_NODE": 111.418, "ARG_OF_PERICENTER": 262.7467, "MEAN_ANOMALY": 149.0723, "EPHEMERIS_TYPE": 0, "CLASSIFICATION_TYPE": "U", "NORAD_CAT_ID": 66980, "ELEMENT_SET_NO": 999, "REV_AT_EPOCH": 329, "BSTAR": -0.0014849, "MEAN_MOTION_DOT": -0.00223872, "MEAN_MOTION_DDOT": 0}, "tle": {"line1": "1 66980U 25288X   25355.83335647 -.00223872  00000+0 -14849-2 0  9996", "line2": "2 66980  43.0008 111.4180 0001693 262.7467 149.0723 15.75165806  3299"}}, "geometry": {"type": "Point", "coordinates": [-86.70797906718114, 14.479146635177985]}}, {"type": "Feature", "properties": {"norad_id": 66981, "name": "STARLINK-36142", "group": "last-30-days", "lat": 13.219096020834241, "lon": -85.22494347921545, "alt_km": 343.0737494691275, "timestamp": "2025-12-22T04:03:37.889710+00:00", "meta": {"OBJECT_NAME": "STARLINK-36142", "OBJECT_ID": "2025-288Y", "EPOCH": "2025-12-21T20:00:01.999008", "MEAN_MOTION": 15.75132064, "ECCENTRICITY": 0.0002137, "INCLINATION": 43.0008, "RA_OF_ASC_NODE": 111.4135, "ARG_OF_PERICENTER": 273.7591, "MEAN_ANOMALY": 139.9913, "EPHEMERIS_TYPE": 0, "CLASSIFICATION_TYPE": "U", "NORAD_CAT_ID": 66981, "ELEMENT_SET_NO": 999, "REV_AT_EPOCH": 329, "BSTAR": -0.0010331, "MEAN_MOTION_DOT": -0.00156916, "MEAN_MOTION_DDOT": 0}, "tle": {"line1": "1 66981U 25288Y   25355.83335647 -.00156916  00000+0 -10331-2 0  9993", "line2": "2 66981  43.0008 111.4135 0002137 273.7591 139.9913 15.75132064  3293"}}, "geometry": {"type": "Point", "coordinates": [-85.22494347921545, 13.219096020834241]}}, {"type": "Feature", "properties": {"norad_id": 66982, "name": "STARLINK-36113", "group": "last-30-days", "lat": 11.941425461975772, "lon": -83.74755594221106, "alt_km": 342.9707391417478, "timestamp": "2025-12-22T04:03:37.889721+00:00", "meta": {"OBJECT_NAME": "STARLINK-36113", "OBJECT_ID": "2025-288Z", "EPOCH": "2025-12-21T20:00:01.999008", "MEAN_MOTION": 15.75098101, "ECCENTRICITY": 0.0001423, "INCLINATION": 43.0006, "RA_OF_ASC_NODE": 111.4083, "ARG_OF_PERICENTER": 271.993, "MEAN_ANOMALY": 143.6936, "EPHEMERIS_TYPE": 0, "CLASSIFICATION_TYPE": "U", "NORAD_CAT_ID": 66982, "ELEMENT_SET_NO": 999, "REV_AT_EPOCH": 329, "BSTAR": -0.00060021, "MEAN_MOTION_DOT": -0.00091913, "MEAN_MOTION_DDOT": 0}, "tle": {"line1": "1 66982U 25288Z   25355.83335647 -.00091913  00000+0 -60021-3 0  9991", "line2": "2 66982  43.0006 111.4083 0001423 271.9930 143.6936 15.75098101  3298"}}, "geometry": {"type": "Point", "coordinates": [-83.74755594221106, 11.941425461975772]}}, {"type": "Feature", "properties": {"norad_id": 66983, "name": "STARLINK-36145", "group": "last-30-days", "lat": 9.383319491058616, "lon": -80.85390255919995, "alt_km": 343.59358269589393, "timestamp": "2025-12-22T04:03:37.889732+00:00", "meta": {"OBJECT_NAME": "STARLINK-36145", "OBJECT_ID": "2025-288AA", "EPOCH": "2025-12-21T20:00:01.999008", "MEAN_MOTION": 15.75058782, "ECCENTRICITY": 0.000146, "INCLINATION": 43.0006, "RA_OF_ASC_NODE": 111.3986, "ARG_OF_PERICENTER": 290.6441, "MEAN_ANOMALY": 128.8966, "EPHEMERIS_TYPE": 0, "CLASSIFICATION_TYPE": "U", "NORAD_CAT_ID": 66983, "ELEMENT_SET_NO": 999, "REV_AT_EPOCH": 329, "BSTAR": -0.00025425, "MEAN_MOTION_DOT": -0.00039383, "MEAN_MOTION_DDOT": 0}, "tle": {"line1": "1 66983U 25288AA  25355.83335647 -.00039383  00000+0 -25425-3 0  9994", "line2": "2 66983  43.0006 111.3986 0001460 290.6441 128.8966 15.75058782  3295"}}, "geometry": {"type": "Point", "coordinates": [-80.85390255919995, 9.383319491058616]}}, {"type": "Feature", "properties": {"norad_id": 66984, "name": "STARLINK-35591", "group": "last-30-days", "lat": 10.674427569523719, "lon": -82.30444424278633, "alt_km": 343.1156387699093, "timestamp": "2025-12-22T04:03:37.889742+00:00", "meta": {"OBJECT_NAME": "STARLINK-35591", "OBJECT_ID": "2025-288AB", "EPOCH": "2025-12-21T20:00:01.999008", "MEAN_MOTION": 15.74993561, "ECCENTRICITY": 0.0001189, "INCLINATION": 43.0009, "RA_OF_ASC_NODE": 111.4033, "ARG_OF_PERICENTER": 281.74, "MEAN_ANOMALY": 135.8908, "EPHEMERIS_TYPE": 0, "CLASSIFICATION_TYPE": "U", "NORAD_CAT_ID": 66984, "ELEMENT_SET_NO": 999, "REV_AT_EPOCH": 329, "BSTAR": 0.00069813, "MEAN_MOTION_DOT": 0.00107926, "MEAN_MOTION_DDOT": 0}, "tle": {"line1": "1 66984U 25288AB  25355.83335647  .00107926  00000+0  69813-3 0  9991", "line2": "2 66984  43.0009 111.4033 0001189 281.7400 135.8908 15.74993561  3293"}}, "geometry": {"type": "Point", "coordinates": [-82.30444424278633, 10.674427569523719]}}, {"type": "Feature", "properties": {"norad_id": 66985, "name": "STARLINK-36103", "group": "last-30-days", "lat": 8.111699072672211, "lon": -79.44193795257908, "alt_km": 343.508188192568, "timestamp": "2025-12-22T04:03:37.889757+00:00", "meta": {"OBJECT_NAME": "STARLINK-36103", "OBJECT_ID": "2025-288AC", "EPOCH": "2025-12-21T20:00:01.999008", "MEAN_MOTION": 15.7496217, "ECCENTRICITY": 0.0002093, "INCLINATION": 43.0006, "RA_OF_ASC_NODE": 111.394, "ARG_OF_PERICENTER": 272.8854, "MEAN_ANOMALY": 148.5926, "EPHEMERIS_TYPE": 0, "CLASSIFICATION_TYPE": "U", "NORAD_CAT_ID": 66985, "ELEMENT_SET_NO": 999, "REV_AT_EPOCH": 329, "BSTAR": 0.0010228, "MEAN_MOTION_DOT": 0.00159105, "MEAN_MOTION_DDOT": 0}, "tle": {"line1": "1 66985U 25288AC  25355.83335647  .00159105  00000+0  10228-2 0  9993", "line2": "2 66985  43.0006 111.3940 0002093 272.8854 148.5926 15.74962170  3299"}}, "geometry": {"type": "Point", "coordinates": [-79.44193795257908, 8.111699072672211]}}, {"type": "Feature", "properties": {"norad_id": 66986, "name": "STARLINK-36135", "group": "last-30-days", "lat": 6.797448187692313, "lon": -77.9986750505987, "alt_km": 343.6967756655031, "timestamp": "2025-12-22T04:03:37.889767+00:00", "meta": {"OBJECT_NAME": "STARLINK-36135", "OBJECT_ID": "2025-288AD", "EPOCH": "2025-12-21T20:00:01.999008", "MEAN_MOTION": 15.75054674, "ECCENTRICITY": 0.0001445, "INCLINATION": 43.0005, "RA_OF_ASC_NODE": 111.3884, "ARG_OF_PERICENTER": 276.2098, "MEAN_ANOMALY": 147.1743, "EPHEMERIS_TYPE": 0, "CLASSIFICATION_TYPE": "U", "NORAD_CAT_ID": 66986, "ELEMENT_SET_NO": 999, "REV_AT_EPOCH": 329, "BSTAR": -0.00024337, "MEAN_MOTION_DOT": -0.00037719, "MEAN_MOTION_DDOT": 0}, "tle": {"line1": "1 66986U 25288AD  25355.83335647 -.00037719  00000+0 -24337-3 0  9999", "line2": "2 66986  43.0005 111.3884 0001445 276.2098 147.1743 15.75054674  3298"}}, "geometry": {"type": "Point", "coordinates": [-77.9986750505987, 6.797448187692313]}}, {"type": "Feature", "properties": {"norad_id": 66987, "name": "STARLINK-36147", "group": "last-30-days", "lat": 5.497556502877598, "lon": -76.5820809350317, "alt_km": 343.9318491054828, "timestamp": "2025-12-22T04:03:37.889777+00:00", "meta": {"OBJECT_NAME": "STARLINK-36147", "OBJECT_ID": "2025-288AE", "EPOCH": "2025-12-21T20:00:01.999008", "MEAN_MOTION": 15.75056121, "ECCENTRICITY": 0.0001605, "INCLINATION": 43.0007, "RA_OF_ASC_NODE": 111.3842, "ARG_OF_PERICENTER": 280.9366, "MEAN_ANOMALY": 144.3599, "EPHEMERIS_TYPE": 0, "CLASSIFICATION_TYPE": "U", "NORAD_CAT_ID": 66987, "ELEMENT_SET_NO": 999, "REV_AT_EPOCH": 329, "BSTAR": -0.00014249, "MEAN_MOTION_DOT": -0.00022323, "MEAN_MOTION_DDOT": 0}, "tle": {"line1": "1 66987U 25288AE  25355.83335647 -.00022323  00000+0 -14249-3 0  9996", "line2": "2 66987  43.0007 111.3842 0001605 280.9366 144.3599 15.75056121  3290"}}, "geometry": {"type": "Point", "coordinates": [-76.5820809350317, 5.497556502877598]}}, {"type": "Feature", "properties": {"norad_id": 66988, "name": "YAOGAN-47", "group": "last-30-days", "lat": -8.39346482160798, "lon": -119.80434164736111, "alt_km": 500.25794258573114, "timestamp": "2025-12-22T04:03:37.889787+00:00", "meta": {"OBJECT_NAME": "YAOGAN-47", "OBJECT_ID": "2025-289A", "EPOCH": "2025-12-20T02:21:43.539840", "MEAN_MOTION": 15.23243112, "ECCENTRICITY": 6.467e-05, "INCLINATION": 97.5265, "RA_OF_ASC_NODE": 59.2376, "ARG_OF_PERICENTER": 91.4531, "MEAN_ANOMALY": 268.678, "EPHEMERIS_TYPE": 0, "CLASSIFICATION_TYPE": "U", "NORAD_CAT_ID": 66988, "ELEMENT_SET_NO": 999, "REV_AT_EPOCH": 166, "BSTAR": 0.00010945697, "MEAN_MOTION_DOT": 2.52e-05, "MEAN_MOTION_DDOT": 0}, "tle": {"line1": "1 66988U 25289A   25354.09842060  .00002520  00000+0  10946-3 0  9992", "line2": "2 66988  97.5265  59.2376 0000646  91.4531 268.6780 15.23243112  1668"}}, "geometry": {"type": "Point", "coordinates": [-119.80434164736111, -8.39346482160798]}}, {"type": "Feature", "properties": {"norad_id": 66989, "name": "CZ-4B R/B", "group": "last-30-days", "lat": 82.43957199082332, "lon": -22.59955212239987, "alt_km": 403.06868473188024, "timestamp": "2025-12-22T04:03:37.889797+00:00", "meta": {"OBJECT_NAME": "CZ-4B R/B", "OBJECT_ID": "2025-289B", "EPOCH": "2025-12-21T18:30:06.682752", "MEAN_MOTION": 15.69310529, "ECCENTRICITY": 0.0142342, "INCLINATION": 97.5243, "RA_OF_ASC_NODE": 61.7764, "ARG_OF_PERICENTER": 328.7141, "MEAN_ANOMALY": 30.5705, "EPHEMERIS_TYPE": 0, "CLASSIFICATION_TYPE": "U", "NORAD_CAT_ID": 66989, "ELEMENT_SET_NO": 999, "REV_AT_EPOCH": 198, "BSTAR": 0.00054082, "MEAN_MOTION_DOT": 0.00113536, "MEAN_MOTION_DDOT": 5.9719e-06}, "tle": {"line1": "1 66989U 25289B   25355.77091068  .00113536  59719-5  54082-3 0  9999", "line2": "2 66989  97.5243  61.7764 0142342 328.7141  30.5705 15.69310529  1982"}}, "geometry": {"type": "Point", "coordinates": [-22.59955212239987, 82.43957199082332]}}]}